[{"OBJECT_NAME":"STARLINK-4276","OBJECT_ID":"2022-083AZ","EPOCH":"2026-03-09T13:02:00.363264","MEAN_MOTION":15.08840608,"ECCENTRICITY":0.00015047,"INCLINATION":53.2161,"RA_OF_ASC_NODE":124.3794,"ARG_OF_PERICENTER":87.097,"MEAN_ANOMALY":273.0194,"EPHEMERIS_TYPE":0,"CLASSIFICATION_TYPE":"U","NORAD_CAT_ID":53179,"ELEMENT_SET_NO":999,"REV_AT_EPOCH":20189,"BSTAR":7.5071185e-5,"MEAN_MOTION_DOT":9.07e-6,"MEAN_MOTION_DDOT":0},{"OBJECT_NAME":"LEMUR-2-MARHISYAM","OBJECT_ID":"2024-149BW","EPOCH":"2026-03-09T17:46:07.876416","MEAN_MOTION":15.0901552,"ECCENTRICITY":0.00035778,"INCLINATION":97.6912,"RA_OF_ASC_NODE":151.2662,"ARG_OF_PERICENTER":107.3271,"MEAN_ANOMALY":252.8349,"EPHEMERIS_TYPE":0,"CLASSIFICATION_TYPE":"U","NORAD_CAT_ID":60536,"ELEMENT_SET_NO":999,"REV_AT_EPOCH":8547,"BSTAR":0.00082973442,"MEAN_MOTION_DOT":0.00013075,"MEAN_MOTION_DDOT":0}]
